[
    {
        "CCSDS_OMM_VERS": "3.0",
        "COMMENT": "GENERATED VIA SPACE-TRACK.ORG API",
        "CREATION_DATE": "2025-03-02T22:26:17",
        "ORIGINATOR": "18 SPCS",
        "OBJECT_NAME": "COSMOS 2564 (GLONASS)",
        "OBJECT_ID": "2022-161A",
        "CENTER_NAME": "EARTH",
        "REF_FRAME": "TEME",
        "TIME_SYSTEM": "UTC",
        "MEAN_ELEMENT_THEORY": "SGP4",
        "EPOCH": "2025-03-02T03:58:38.866368",
        "MEAN_MOTION": "2.13101895",
        "ECCENTRICITY": "0.00085580",
        "INCLINATION": "64.7402",
        "RA_OF_ASC_NODE": "208.3858",
        "ARG_OF_PERICENTER": "208.2526",
        "MEAN_ANOMALY": "151.6656",
        "EPHEMERIS_TYPE": "0",
        "CLASSIFICATION_TYPE": "U",
        "NORAD_CAT_ID": "54377",
        "ELEMENT_SET_NO": "999",
        "REV_AT_EPOCH": "1757",
        "BSTAR": "0.00000000000000",
        "MEAN_MOTION_DOT": "0.00000054",
        "MEAN_MOTION_DDOT": "0.0000000000000",
        "SEMIMAJOR_AXIS": "25508.033",
        "PERIOD": "675.733",
        "APOAPSIS": "19151.728",
        "PERIAPSIS": "19108.068",
        "OBJECT_TYPE": "PAYLOAD",
        "RCS_SIZE": "LARGE",
        "COUNTRY_CODE": "CIS",
        "LAUNCH_DATE": "2022-11-28",
        "SITE": "PKMTR",
        "DECAY_DATE": null,
        "FILE": "4657212",
        "GP_ID": "282102409",
        "TLE_LINE0": "0 COSMOS 2564 (GLONASS)",
        "TLE_LINE1": "1 54377U 22161A   25061.16572762  .00000054  00000-0  00000+0 0  9996",
        "TLE_LINE2": "2 54377  64.7402 208.3858 0008558 208.2526 151.6656  2.13101895 17576"
    }
]